ONEWEB-0349             
1 49281U 21090C   26133.45554409  .00000015  00000+0  61419-5 0  9998
2 49281  87.9159 281.3684 0001849  98.8797 261.2546 13.20744169225245
ONEWEB-0353             
1 49282U 21090D   26133.95770305 -.00000043  00000+0 -15007-3 0  9992
2 49282  87.8931 296.5328 0001896  87.6684 272.4662 13.14503992223082
ONEWEB-0356             
1 49283U 21090E   26133.45389729  .00000062  00000+0  11942-3 0  9997
2 49283  87.9162 281.3620 0002713  98.3841 261.7600 13.20757170225249
ONEWEB-0358             
1 49284U 21090F   26134.31681138  .00000193  00000+0  44333-3 0  9998
2 49284  87.9163 281.1932 0001942 102.6599 257.4752 13.20824434226088
ONEWEB-0359             
1 49285U 21090G   26134.31413433 -.00000089  00000+0 -25207-3 0  9995
2 49285  87.9162 281.1902 0001833 107.0983 253.0351 13.20744049226068
ONEWEB-0360             
1 49286U 21090H   26134.30418722  .00000103  00000+0  22005-3 0  9999
2 49286  87.9164 281.1985 0001787 103.2731 256.8602 13.20826735225375
ONEWEB-0361             
1 49287U 21090J   26133.45224290  .00000065  00000+0  12764-3 0  9998
2 49287  87.9160 281.3666 0001948 101.3367 258.7986 13.20773507225715
ONEWEB-0362             
1 49288U 21090K   26134.05967553  .00000058  00000+0  11300-3 0  9999
2 49288  87.9145 311.7837 0001550  90.2628 269.8682 13.19725661222418
ONEWEB-0363             
1 49289U 21090L   26133.84635785  .00000005  00000+0 -18555-4 0  9998
2 49289  87.9162 281.2885 0002192 101.2689 258.8691 13.20855486225776
ONEWEB-0364             
1 49290U 21090M   26133.96059617 -.00000003  00000+0 -38876-4 0  9994
2 49290  87.9157 281.2746 0001873  98.5379 261.5966 13.20743940226922
ONEWEB-0365             
1 49291U 21090N   26133.99334403 -.00000030  00000+0 -10839-3 0  9995
2 49291  87.9154 311.7824 0001789  89.1709 270.9628 13.19725862221919
ONEWEB-0366             
1 49292U 21090P   26133.95452371 -.00000089  00000+0 -27342-3 0  9998
2 49292  87.8925 296.5370 0001817  97.0769 263.0567 13.14504167223068
ONEWEB-0367             
1 49293U 21090Q   26133.84531626  .00001693  00000+0  41315-2 0  9993
2 49293  87.9165 281.2893 0001485  96.9749 263.1553 13.20749848225291
ONEWEB-0368             
1 49294U 21090R   26133.97052448  .00000047  00000+0  83404-4 0  9997
2 49294  87.9149 281.2786 0002393  84.5960 275.5447 13.20658685226469
ONEWEB-0369             
1 49295U 21090S   26134.21605123  .00000035  00000+0  55830-4 0  9999
2 49295  87.9143 311.7490 0001866  89.0938 271.0408 13.19725442221933
ONEWEB-0370             
1 49296U 21090T   26133.93038328 -.00000066  00000+0 -19432-3 0  9998
2 49296  87.9161 281.2725 0001661 104.3329 255.7989 13.20783787225344
