[{"OBJECT_NAME":"ONEWEB-0349","OBJECT_ID":"2021-090C","EPOCH":"2026-05-13T10:55:59.009376","MEAN_MOTION":13.20744169,"ECCENTRICITY":0.0001849,"INCLINATION":87.9159,"RA_OF_ASC_NODE":281.3684,"ARG_OF_PERICENTER":98.8797,"MEAN_ANOMALY":261.2546,"EPHEMERIS_TYPE":0,"CLASSIFICATION_TYPE":"U","NORAD_CAT_ID":49281,"ELEMENT_SET_NO":999,"REV_AT_EPOCH":22524,"BSTAR":6.1419000000000004e-06,"MEAN_MOTION_DOT":1.5e-07,"MEAN_MOTION_DDOT":0.0},{"OBJECT_NAME":"ONEWEB-0353","OBJECT_ID":"2021-090D","EPOCH":"2026-05-13T22:59:05.543520","MEAN_MOTION":13.14503992,"ECCENTRICITY":0.0001896,"INCLINATION":87.8931,"RA_OF_ASC_NODE":296.5328,"ARG_OF_PERICENTER":87.6684,"MEAN_ANOMALY":272.4662,"EPHEMERIS_TYPE":0,"CLASSIFICATION_TYPE":"U","NORAD_CAT_ID":49282,"ELEMENT_SET_NO":999,"REV_AT_EPOCH":22308,"BSTAR":-0.00015007,"MEAN_MOTION_DOT":-4.3e-07,"MEAN_MOTION_DDOT":0.0},{"OBJECT_NAME":"ONEWEB-0356","OBJECT_ID":"2021-090E","EPOCH":"2026-05-13T10:53:36.725856","MEAN_MOTION":13.2075717,"ECCENTRICITY":0.0002713,"INCLINATION":87.9162,"RA_OF_ASC_NODE":281.362,"ARG_OF_PERICENTER":98.3841,"MEAN_ANOMALY":261.76,"EPHEMERIS_TYPE":0,"CLASSIFICATION_TYPE":"U","NORAD_CAT_ID":49283,"ELEMENT_SET_NO":999,"REV_AT_EPOCH":22524,"BSTAR":0.00011942,"MEAN_MOTION_DOT":6.2e-07,"MEAN_MOTION_DDOT":0.0},{"OBJECT_NAME":"ONEWEB-0358","OBJECT_ID":"2021-090F","EPOCH":"2026-05-14T07:36:12.503232","MEAN_MOTION":13.20824434,"ECCENTRICITY":0.0001942,"INCLINATION":87.9163,"RA_OF_ASC_NODE":281.1932,"ARG_OF_PERICENTER":102.6599,"MEAN_ANOMALY":257.4752,"EPHEMERIS_TYPE":0,"CLASSIFICATION_TYPE":"U","NORAD_CAT_ID":49284,"ELEMENT_SET_NO":999,"REV_AT_EPOCH":22608,"BSTAR":0.00044333,"MEAN_MOTION_DOT":1.93e-06,"MEAN_MOTION_DDOT":0.0},{"OBJECT_NAME":"ONEWEB-0359","OBJECT_ID":"2021-090G","EPOCH":"2026-05-14T07:32:21.206112","MEAN_MOTION":13.20744049,"ECCENTRICITY":0.0001833,"INCLINATION":87.9162,"RA_OF_ASC_NODE":281.1902,"ARG_OF_PERICENTER":107.0983,"MEAN_ANOMALY":253.0351,"EPHEMERIS_TYPE":0,"CLASSIFICATION_TYPE":"U","NORAD_CAT_ID":49285,"ELEMENT_SET_NO":999,"REV_AT_EPOCH":22606,"BSTAR":-0.00025207,"MEAN_MOTION_DOT":-8.9e-07,"MEAN_MOTION_DDOT":0.0},{"OBJECT_NAME":"ONEWEB-0360","OBJECT_ID":"2021-090H","EPOCH":"2026-05-14T07:18:01.775808","MEAN_MOTION":13.20826735,"ECCENTRICITY":0.0001787,"INCLINATION":87.9164,"RA_OF_ASC_NODE":281.1985,"ARG_OF_PERICENTER":103.2731,"MEAN_ANOMALY":256.8602,"EPHEMERIS_TYPE":0,"CLASSIFICATION_TYPE":"U","NORAD_CAT_ID":49286,"ELEMENT_SET_NO":999,"REV_AT_EPOCH":22537,"BSTAR":0.00022005,"MEAN_MOTION_DOT":1.03e-06,"MEAN_MOTION_DDOT":0.0},{"OBJECT_NAME":"ONEWEB-0361","OBJECT_ID":"2021-090J","EPOCH":"2026-05-13T10:51:13.786560","MEAN_MOTION":13.20773507,"ECCENTRICITY":0.0001948,"INCLINATION":87.916,"RA_OF_ASC_NODE":281.3666,"ARG_OF_PERICENTER":101.3367,"MEAN_ANOMALY":258.7986,"EPHEMERIS_TYPE":0,"CLASSIFICATION_TYPE":"U","NORAD_CAT_ID":49287,"ELEMENT_SET_NO":999,"REV_AT_EPOCH":22571,"BSTAR":0.00012764000000000002,"MEAN_MOTION_DOT":6.5e-07,"MEAN_MOTION_DDOT":0.0},{"OBJECT_NAME":"ONEWEB-0362","OBJECT_ID":"2021-090K","EPOCH":"2026-05-14T01:25:55.965792","MEAN_MOTION":13.19725661,"ECCENTRICITY":0.000155,"INCLINATION":87.9145,"RA_OF_ASC_NODE":311.7837,"ARG_OF_PERICENTER":90.2628,"MEAN_ANOMALY":269.8682,"EPHEMERIS_TYPE":0,"CLASSIFICATION_TYPE":"U","NORAD_CAT_ID":49288,"ELEMENT_SET_NO":999,"REV_AT_EPOCH":22241,"BSTAR":0.00011300000000000001,"MEAN_MOTION_DOT":5.8e-07,"MEAN_MOTION_DDOT":0.0},{"OBJECT_NAME":"ONEWEB-0363","OBJECT_ID":"2021-090L","EPOCH":"2026-05-13T20:18:45.318240","MEAN_MOTION":13.20855486,"ECCENTRICITY":0.0002192,"INCLINATION":87.9162,"RA_OF_ASC_NODE":281.2885,"ARG_OF_PERICENTER":101.2689,"MEAN_ANOMALY":258.8691,"EPHEMERIS_TYPE":0,"CLASSIFICATION_TYPE":"U","NORAD_CAT_ID":49289,"ELEMENT_SET_NO":999,"REV_AT_EPOCH":22577,"BSTAR":-1.8555e-05,"MEAN_MOTION_DOT":5e-08,"MEAN_MOTION_DDOT":0.0},{"OBJECT_NAME":"ONEWEB-0364","OBJECT_ID":"2021-090M","EPOCH":"2026-05-13T23:03:15.509088","MEAN_MOTION":13.2074394,"ECCENTRICITY":0.0001873,"INCLINATION":87.9157,"RA_OF_ASC_NODE":281.2746,"ARG_OF_PERICENTER":98.5379,"MEAN_ANOMALY":261.5966,"EPHEMERIS_TYPE":0,"CLASSIFICATION_TYPE":"U","NORAD_CAT_ID":49290,"ELEMENT_SET_NO":999,"REV_AT_EPOCH":22692,"BSTAR":-3.8876e-05,"MEAN_MOTION_DOT":-3e-08,"MEAN_MOTION_DDOT":0.0},{"OBJECT_NAME":"ONEWEB-0365","OBJECT_ID":"2021-090N","EPOCH":"2026-05-13T23:50:24.924192","MEAN_MOTION":13.19725862,"ECCENTRICITY":0.0001789,"INCLINATION":87.9154,"RA_OF_ASC_NODE":311.7824,"ARG_OF_PERICENTER":89.1709,"MEAN_ANOMALY":270.9628,"EPHEMERIS_TYPE":0,"CLASSIFICATION_TYPE":"U","NORAD_CAT_ID":49291,"ELEMENT_SET_NO":999,"REV_AT_EPOCH":22191,"BSTAR":-0.00010839,"MEAN_MOTION_DOT":-3e-07,"MEAN_MOTION_DDOT":0.0},{"OBJECT_NAME":"ONEWEB-0366","OBJECT_ID":"2021-090P","EPOCH":"2026-05-13T22:54:30.848544","MEAN_MOTION":13.14504167,"ECCENTRICITY":0.0001817,"INCLINATION":87.8925,"RA_OF_ASC_NODE":296.537,"ARG_OF_PERICENTER":97.0769,"MEAN_ANOMALY":263.0567,"EPHEMERIS_TYPE":0,"CLASSIFICATION_TYPE":"U","NORAD_CAT_ID":49292,"ELEMENT_SET_NO":999,"REV_AT_EPOCH":22306,"BSTAR":-0.00027342,"MEAN_MOTION_DOT":-8.9e-07,"MEAN_MOTION_DDOT":0.0},{"OBJECT_NAME":"ONEWEB-0367","OBJECT_ID":"2021-090Q","EPOCH":"2026-05-13T20:17:15.324864","MEAN_MOTION":13.20749848,"ECCENTRICITY":0.0001485,"INCLINATION":87.9165,"RA_OF_ASC_NODE":281.2893,"ARG_OF_PERICENTER":96.9749,"MEAN_ANOMALY":263.1553,"EPHEMERIS_TYPE":0,"CLASSIFICATION_TYPE":"U","NORAD_CAT_ID":49293,"ELEMENT_SET_NO":999,"REV_AT_EPOCH":22529,"BSTAR":0.004131500000000001,"MEAN_MOTION_DOT":1.693e-05,"MEAN_MOTION_DDOT":0.0},{"OBJECT_NAME":"ONEWEB-0368","OBJECT_ID":"2021-090R","EPOCH":"2026-05-13T23:17:33.315072","MEAN_MOTION":13.20658685,"ECCENTRICITY":0.0002393,"INCLINATION":87.9149,"RA_OF_ASC_NODE":281.2786,"ARG_OF_PERICENTER":84.596,"MEAN_ANOMALY":275.5447,"EPHEMERIS_TYPE":0,"CLASSIFICATION_TYPE":"U","NORAD_CAT_ID":49294,"ELEMENT_SET_NO":999,"REV_AT_EPOCH":22646,"BSTAR":8.3404e-05,"MEAN_MOTION_DOT":4.7e-07,"MEAN_MOTION_DDOT":0.0},{"OBJECT_NAME":"ONEWEB-0369","OBJECT_ID":"2021-090S","EPOCH":"2026-05-14T05:11:06.826272","MEAN_MOTION":13.19725442,"ECCENTRICITY":0.0001866,"INCLINATION":87.9143,"RA_OF_ASC_NODE":311.749,"ARG_OF_PERICENTER":89.0938,"MEAN_ANOMALY":271.0408,"EPHEMERIS_TYPE":0,"CLASSIFICATION_TYPE":"U","NORAD_CAT_ID":49295,"ELEMENT_SET_NO":999,"REV_AT_EPOCH":22193,"BSTAR":5.5830000000000006e-05,"MEAN_MOTION_DOT":3.5e-07,"MEAN_MOTION_DDOT":0.0},{"OBJECT_NAME":"ONEWEB-0370","OBJECT_ID":"2021-090T","EPOCH":"2026-05-13T22:19:45.115392","MEAN_MOTION":13.20783787,"ECCENTRICITY":0.0001661,"INCLINATION":87.9161,"RA_OF_ASC_NODE":281.2725,"ARG_OF_PERICENTER":104.3329,"MEAN_ANOMALY":255.7989,"EPHEMERIS_TYPE":0,"CLASSIFICATION_TYPE":"U","NORAD_CAT_ID":49296,"ELEMENT_SET_NO":999,"REV_AT_EPOCH":22534,"BSTAR":-0.00019432,"MEAN_MOTION_DOT":-6.6e-07,"MEAN_MOTION_DDOT":0.0}]